[{"OBJECT_NAME":"STARLINK-31257","OBJECT_ID":"2024-041F","EPOCH":"2026-03-09T00:55:49.401408","MEAN_MOTION":15.27580429,"ECCENTRICITY":0.00014469,"INCLINATION":43.0036,"RA_OF_ASC_NODE":314.236,"ARG_OF_PERICENTER":256.3758,"MEAN_ANOMALY":103.6933,"EPHEMERIS_TYPE":0,"CLASSIFICATION_TYPE":"U","NORAD_CAT_ID":59079,"ELEMENT_SET_NO":999,"REV_AT_EPOCH":11417,"BSTAR":2.7929195e-5,"MEAN_MOTION_DOT":5.06e-6,"MEAN_MOTION_DDOT":0},{"OBJECT_NAME":"STARLINK-36554","OBJECT_ID":"2026-012K","EPOCH":"2026-03-08T17:06:15.871680","MEAN_MOTION":15.27591469,"ECCENTRICITY":6.955e-5,"INCLINATION":42.9934,"RA_OF_ASC_NODE":319.8184,"ARG_OF_PERICENTER":339.2059,"MEAN_ANOMALY":20.8765,"EPHEMERIS_TYPE":0,"CLASSIFICATION_TYPE":"U","NORAD_CAT_ID":67502,"ELEMENT_SET_NO":999,"REV_AT_EPOCH":761,"BSTAR":0.0011969118,"MEAN_MOTION_DOT":0.00032833,"MEAN_MOTION_DDOT":0}]
